NORAD_CAT_ID,OBJECT_NAME,OBJECT_TYPE,EPOCH,MEAN_MOTION,ECCENTRICITY,INCLINATION,RA_OF_ASC_NODE,ARG_OF_PERICENTER,MEAN_ANOMALY,BSTAR,MEAN_MOTION_DOT,MEAN_MOTION_DDOT,TLE_LINE0,TLE_LINE1,TLE_LINE2,SEMIMAJOR_AXIS,PERIOD,APOGEE,PERIGEE,DECAYED
52268.0,STARLINK-3746,PAYLOAD,2024-05-03 18:12:32,15.08837047,0.0001553,53.2173,258.9258,81.3397,278.7771,0.00025472,3.768e-05,0.0,0 STARLINK-3746,1 52268U 22041H   24124.75871481  .00003768  00000-0  25472-3 0  9993,2 52268  53.2173 258.9258 0001553  81.3397 278.7771 15.08837047112477,6917.889,95.438,540.829,538.68,0.0
52268.0,STARLINK-3746,PAYLOAD,2024-05-04 02:09:28,15.08844476,0.0001575,53.2172,257.4401,82.652,277.4651,0.00033501,5.048e-05,0.0,0 STARLINK-3746,1 52268U 22041H   24125.08991295  .00005048  00000-0  33501-3 0  9991,2 52268  53.2172 257.4401 0001575  82.6520 277.4651 15.08844476113744,6917.867,95.437,540.821,538.642,0.0
52268.0,STARLINK-3746,PAYLOAD,2024-05-04 13:17:10,15.08831872,0.0001416,53.2155,255.3583,90.6299,269.4855,-7.4743e-06,-4.07e-06,0.0,0 STARLINK-3746,1 52268U 22041H   24125.55359742 -.00000407  00000-0 -74743-5 0  9999,2 52268  53.2155 255.3583 0001416  90.6299 269.4855 15.08831872113810,6917.905,95.438,540.75,538.791,0.0
52268.0,STARLINK-3746,PAYLOAD,2024-05-05 14:43:21,15.08851129,0.0001312,53.2165,250.6015,82.6858,277.4283,0.00084417,0.00013177,0.0,0 STARLINK-3746,1 52268U 22041H   24126.61343863  .00013177  00000-0  84417-3 0  9997,2 52268  53.2165 250.6015 0001312  82.6858 277.4283 15.08851129112759,6917.846,95.437,540.619,538.804,0.0
52268.0,STARLINK-3746,PAYLOAD,2024-05-06 12:58:44,15.08847792,0.0001347,53.2171,246.4382,86.7356,273.3791,0.00027178,4.041e-05,0.0,0 STARLINK-3746,1 52268U 22041H   24127.54079347  .00004041  00000-0  27178-3 0  9994,2 52268  53.2171 246.4382 0001347  86.7356 273.3791 15.08847792114114,6917.857,95.437,540.653,538.79,0.0
52268.0,STARLINK-3746,PAYLOAD,2024-05-06 14:34:07,15.08851371,0.0001267,53.2171,246.1407,91.9366,268.1772,0.00044415,6.79e-05,0.0,0 STARLINK-3746,1 52268U 22041H   24127.60703238  .00006790  00000-0  44415-3 0  9990,2 52268  53.2171 246.1407 0001267  91.9366 268.1772 15.08851371112903,6917.846,95.437,540.587,538.834,0.0
52268.0,STARLINK-3746,PAYLOAD,2024-05-07 12:49:31,15.08833914,0.0001267,53.2172,241.9783,84.5133,275.6004,0.00023225,3.41e-05,0.0,0 STARLINK-3746,1 52268U 22041H   24128.53439527  .00003410  00000-0  23225-3 0  9992,2 52268  53.2172 241.9783 0001267  84.5133 275.6004 15.08833914114269,6917.899,95.438,540.64,538.887,0.0
52268.0,STARLINK-3746,PAYLOAD,2024-05-07 14:24:54,15.08836867,0.0001154,53.2165,241.6799,73.7512,286.3607,0.00047603,7.296e-05,0.0,0 STARLINK-3746,1 52268U 22041H   24128.60063588  .00007296  00000-0  47603-3 0  9992,2 52268  53.2165 241.6799 0001154  73.7512 286.3607 15.08836867113055,6917.89,95.438,540.553,538.957,0.0
52268.0,STARLINK-3746,PAYLOAD,2024-05-08 14:15:42,15.08865501,0.0001191,53.2162,237.2186,64.8029,295.3086,0.0017417,0.00027559,0.0,0 STARLINK-3746,1 52268U 22041H   24129.59423711  .00027559  00000-0  17417-2 0  9992,2 52268  53.2162 237.2186 0001191  64.8029 295.3086 15.08865501113203,6917.802,95.436,540.491,538.844,0.0
52268.0,STARLINK-3746,PAYLOAD,2024-05-09 12:31:05,15.08831499,9.18e-05,53.216,233.0568,93.3002,266.8095,0.0013061,0.00020555,0.0,0 STARLINK-3746,1 52268U 22041H   24130.52159231  .00020555  00000-0  13061-2 0  9990,2 52268  53.2160 233.0568 0000918  93.3002 266.8095 15.08831499114565,6917.906,95.438,540.406,539.136,0.0
52268.0,STARLINK-3746,PAYLOAD,2024-05-09 14:06:28,15.08833874,9.01e-05,53.2162,232.7598,93.6362,266.4733,0.0019813,0.0003138,0.0,0 STARLINK-3746,1 52268U 22041H   24130.58783293  .00031380  00000-0  19813-2 0  9996,2 52268  53.2162 232.7598 0000901  93.6362 266.4733 15.08833874113350,6917.899,95.438,540.387,539.141,0.0
52268.0,STARLINK-3746,PAYLOAD,2024-05-10 12:21:53,15.08846092,0.0001032,53.2171,228.5983,100.3338,259.7771,0.0014361,0.00022645,0.0,0 STARLINK-3746,1 52268U 22041H   24131.51519957  .00022645  00000-0  14361-2 0  9991,2 52268  53.2171 228.5983 0001032 100.3338 259.7771 15.08846092114710,6917.862,95.437,540.441,539.013,0.0
52268.0,STARLINK-3746,PAYLOAD,2024-05-10 13:57:16,15.08841298,9.49e-05,53.2166,228.3001,92.1583,267.9518,0.0010924,0.00017141,0.0,0 STARLINK-3746,1 52268U 22041H   24131.58144008  .00017141  00000-0  10924-2 0  9995,2 52268  53.2166 228.3001 0000949  92.1583 267.9518 15.08841298113508,6917.876,95.437,540.398,539.085,0.0
52268.0,STARLINK-3746,PAYLOAD,2024-05-10 15:32:39,15.08838863,9.78e-05,53.2164,228.003,96.7833,263.3271,0.00065528,0.00010156,0.0,0 STARLINK-3746,1 52268U 22041H   24131.64768014  .00010156  00000-0  65528-3 0  9991,2 52268  53.2164 228.0030 0000978  96.7833 263.3271 15.08838863114731,6917.884,95.438,540.425,539.072,0.0
52268.0,STARLINK-3746,PAYLOAD,2024-05-11 12:12:37,15.08978728,0.0001314,53.2152,224.1347,92.2191,267.8952,0.0063225,0.00102184,0.0,0 STARLINK-3746,1 52268U 22041H   24132.50877067  .00102184  00000-0  63225-2 0  9990,2 52268  53.2152 224.1347 0001314  92.2191 267.8952 15.08978728114863,6917.456,95.429,540.23,538.412,0.0
52268.0,STARLINK-3746,PAYLOAD,2024-05-11 13:48:00,15.09008343,0.0001245,53.2152,223.837,82.9691,277.1443,0.0057575,0.00092981,0.0,0 STARLINK-3746,1 52268U 22041H   24132.57500259  .00092981  00000-0  57575-2 0  9997,2 52268  53.2152 223.8370 0001245  82.9691 277.1443 15.09008343113652,6917.366,95.427,540.092,538.37,0.0
52268.0,STARLINK-3746,PAYLOAD,2024-05-12 13:38:55,15.08775561,0.0001686,53.2148,219.3801,97.0335,263.0849,0.002077,0.00032864,0.0,0 STARLINK-3746,1 52268U 22041H   24133.56869521  .00032864  00000-0  20770-2 0  9998,2 52268  53.2148 219.3801 0001686  97.0335 263.0849 15.08775561115026,6918.077,95.442,541.109,538.776,0.0
52268.0,STARLINK-3746,PAYLOAD,2024-05-12 15:14:18,15.08781488,0.0001569,53.215,219.0813,103.8446,256.2721,0.0013642,0.00021455,0.0,0 STARLINK-3746,1 52268U 22041H   24133.63493601  .00021455  00000-0  13642-2 0  9992,2 52268  53.2150 219.0813 0001569 103.8446 256.2721 15.08781488113811,6918.059,95.441,541.01,538.839,0.0
52268.0,STARLINK-3746,PAYLOAD,2024-05-13 11:54:19,15.08885498,0.0001262,53.2141,215.2155,81.3264,278.7871,0.0042248,0.0006768,0.0,0 STARLINK-3746,1 52268U 22041H   24134.49605755  .00067680  00000-0  42248-2 0  9996,2 52268  53.2141 215.2155 0001262  81.3264 278.7871 15.08885498115167,6917.741,95.435,540.479,538.733,0.0
52268.0,STARLINK-3746,PAYLOAD,2024-05-14 05:23:31,15.08926313,0.0001609,53.2141,211.9432,83.252,276.8655,0.0035625,0.00057003,0.0,0 STARLINK-3746,1 52268U 22041H   24135.22467507  .00057003  00000-0  35625-2 0  9998,2 52268  53.2141 211.9432 0001609  83.2520 276.8655 15.08926313115272,6917.617,95.432,540.595,538.369,0.0
52268.0,STARLINK-3746,PAYLOAD,2024-05-14 11:45:03,15.08914941,0.0001575,53.2142,210.7535,86.6445,273.4727,0.0031476,0.00050267,0.0,0 STARLINK-3746,1 52268U 22041H   24135.48962315  .00050267  00000-0  31476-2 0  9998,2 52268  53.2142 210.7535 0001575  86.6445 273.4727 15.08914941115311,6917.651,95.433,540.606,538.427,0.0
52268.0,STARLINK-3746,PAYLOAD,2024-05-15 05:14:16,15.08907964,0.0001176,53.2161,207.4843,110.7697,249.3421,0.0028154,0.00044888,0.0,0 STARLINK-3746,1 52268U 22041H   24136.21824382  .00044888  00000-0  28154-2 0  9992,2 52268  53.2161 207.4843 0001176 110.7697 249.3421 15.08907964115424,6917.673,95.433,540.351,538.724,0.0
52268.0,STARLINK-3746,PAYLOAD,2024-05-15 11:35:48,15.08870657,0.000155,53.2162,206.2945,102.5329,257.5836,-0.00013386,-2.42e-05,0.0,0 STARLINK-3746,1 52268U 22041H   24136.48319877 -.00002420  00000-0 -13386-3 0  9999,2 52268  53.2162 206.2945 0001550 102.5329 257.5836 15.08870657115465,6917.787,95.436,540.724,538.579,0.0
52268.0,STARLINK-3746,PAYLOAD,2024-05-15 21:08:06,15.08878848,0.0001379,53.2162,204.5106,99.0168,261.0981,0.0010089,0.00015822,0.0,0 STARLINK-3746,1 52268U 22041H   24136.88063250  .00015822  00000-0  10089-2 0  9998,2 52268  53.2162 204.5106 0001379  99.0168 261.0981 15.08878848114308,6917.762,95.435,540.581,538.673,0.0
52268.0,STARLINK-3746,PAYLOAD,2024-05-16 11:26:35,15.08842787,0.0001473,53.2161,201.835,88.8545,271.2615,0.00047228,7.237e-05,0.0,0 STARLINK-3746,1 52268U 22041H   24137.47679991  .00007237  00000-0  47228-3 0  9996,2 52268  53.2161 201.8350 0001473  88.8545 271.2615 15.08842787115613,6917.872,95.437,540.756,538.718,0.0
52268.0,STARLINK-3746,PAYLOAD,2024-05-16 20:58:53,15.08872877,0.0001496,53.2165,200.0488,77.6042,282.5118,0.0016217,0.00025639,0.0,0 STARLINK-3746,1 52268U 22041H   24137.87423367  .00025639  00000-0  16217-2 0  9993,2 52268  53.2165 200.0488 0001496  77.6042 282.5118 15.08872877114450,6917.78,95.435,540.68,538.61,0.0
52268.0,STARLINK-3746,PAYLOAD,2024-05-17 11:17:22,15.08839672,0.0001618,53.2158,197.3738,65.5528,294.5633,0.0014743,0.00023253,0.0,0 STARLINK-3746,1 52268U 22041H   24138.47040060  .00023253  00000-0  14743-2 0  9997,2 52268  53.2158 197.3738 0001618  65.5528 294.5633 15.08839672115765,6917.881,95.438,540.866,538.627,0.0
52268.0,STARLINK-3746,PAYLOAD,2024-05-17 20:49:41,15.08853561,0.0001649,53.2162,195.5899,74.3269,285.7905,0.001282,0.00020181,0.0,0 STARLINK-3746,1 52268U 22041H   24138.86783886  .00020181  00000-0  12820-2 0  9991,2 52268  53.2162 195.5899 0001649  74.3269 285.7905 15.08853561114601,6917.839,95.437,540.845,538.563,0.0
52268.0,STARLINK-3746,PAYLOAD,2024-05-18 04:46:37,15.08834983,0.0002227,53.2162,194.1023,86.2531,273.8715,0.0018045,0.00028544,0.0,0 STARLINK-3746,1 52268U 22041H   24139.19904497  .00028544  00000-0  18045-2 0  9997,2 52268  53.2162 194.1023 0002227  86.2531 273.8715 15.08834983115876,6917.896,95.438,541.301,538.22,0.0
52268.0,STARLINK-3746,PAYLOAD,2024-05-18 11:08:10,15.08839578,0.0001396,53.215,192.9119,82.5317,277.5834,0.0023121,0.00036701,0.0,0 STARLINK-3746,1 52268U 22041H   24139.46400543  .00036701  00000-0  23121-2 0  9995,2 52268  53.2150 192.9119 0001396  82.5317 277.5834 15.08839578114699,6917.882,95.438,540.712,538.781,0.0
